NORAD_CAT_ID,OBJECT_NAME,OBJECT_TYPE,EPOCH,MEAN_MOTION,ECCENTRICITY,INCLINATION,RA_OF_ASC_NODE,ARG_OF_PERICENTER,MEAN_ANOMALY,BSTAR,MEAN_MOTION_DOT,MEAN_MOTION_DDOT,TLE_LINE0,TLE_LINE1,TLE_LINE2,SEMIMAJOR_AXIS,PERIOD,APOGEE,PERIGEE,DECAYED
56776.0,STARLINK-6274,PAYLOAD,2024-02-06 04:31:00,14.98331341,0.0002729,69.9992,87.1779,263.345,96.7398,-4.2071e-05,-5.95e-06,0.0,0 STARLINK-6274,1 56776U 23078K   24037.18819714 -.00000595  00000-0 -42071-4 0  9995,2 56776  69.9992  87.1779 0002729 263.3450  96.7398 14.98331341 39213,6950.189,96.107,573.95,570.157,0.0
56776.0,STARLINK-6274,PAYLOAD,2024-02-06 12:31:40,14.98331807,0.0002705,69.9993,86.3363,263.1185,96.9666,-2.9674e-05,-4.47e-06,0.0,0 STARLINK-6274,1 56776U 23078K   24037.52199610 -.00000447  00000-0 -29674-4 0  9999,2 56776  69.9993  86.3363 0002705 263.1185  96.9666 14.98331807 39005,6950.187,96.107,573.932,570.172,0.0
56776.0,STARLINK-6274,PAYLOAD,2024-02-07 04:33:01,14.9832737,0.0002679,69.9993,84.6529,262.2913,97.7942,-2.9387e-06,-1.28e-06,0.0,0 STARLINK-6274,1 56776U 23078K   24038.18959782 -.00000128  00000-0 -29387-5 0  9994,2 56776  69.9993  84.6529 0002679 262.2913  97.7942 14.98327370 39364,6950.201,96.107,573.928,570.204,0.0
56776.0,STARLINK-6274,PAYLOAD,2024-02-07 12:33:41,14.98329445,0.000272,69.9993,83.8117,265.5416,94.5432,1.2989e-05,6.2e-07,0.0,0 STARLINK-6274,1 56776U 23078K   24038.52339655  .00000062  00000-0  12989-4 0  9997,2 56776  69.9993  83.8117 0002720 265.5416  94.5432 14.98329445 39150,6950.195,96.107,573.95,570.169,0.0
56776.0,STARLINK-6274,PAYLOAD,2024-02-07 20:34:21,14.98327529,0.0002748,69.999,82.9678,265.2366,94.8479,-1.2571e-05,-2.43e-06,0.0,0 STARLINK-6274,1 56776U 23078K   24038.85719844 -.00000243  00000-0 -12571-4 0  9995,2 56776  69.9990  82.9678 0002748 265.2366  94.8479 14.98327529 39201,6950.201,96.107,573.975,570.156,0.0
56776.0,STARLINK-6274,PAYLOAD,2024-02-08 04:35:02,14.9833034,0.0002875,69.9986,82.1263,266.5847,93.4984,2.9881e-07,-8.9e-07,0.0,0 STARLINK-6274,1 56776U 23078K   24039.19099612 -.00000089  00000-0  29881-6 0  9998,2 56776  69.9986  82.1263 0002875 266.5847  93.4984 14.98330340 39512,6950.192,96.107,574.055,570.059,0.0
56776.0,STARLINK-6274,PAYLOAD,2024-02-08 12:35:42,14.98332932,0.0002933,69.9987,81.286,269.3632,90.7191,2.5849e-05,2.15e-06,0.0,0 STARLINK-6274,1 56776U 23078K   24039.52479373  .00000215  00000-0  25849-4 0  9999,2 56776  69.9987  81.2860 0002933 269.3632  90.7191 14.98332932 39300,6950.184,96.107,574.087,570.01,0.0
56776.0,STARLINK-6274,PAYLOAD,2024-02-09 11:01:35,14.98330138,0.0002844,69.9988,78.9293,268.3217,91.7616,3.6232e-05,3.39e-06,0.0,0 STARLINK-6274,1 56776U 23078K   24040.45943495  .00000339  00000-0  36232-4 0  9999,2 56776  69.9988  78.9293 0002844 268.3217  91.7616 14.98330138 39706,6950.192,96.107,574.034,570.081,0.0
56776.0,STARLINK-6274,PAYLOAD,2024-02-09 12:37:43,14.98322291,0.000288,69.9989,78.761,268.6125,91.4704,0.00018745,2.144e-05,0.0,0 STARLINK-6274,1 56776U 23078K   24040.52619611  .00002144  00000-0  18745-3 0  9991,2 56776  69.9989  78.7610 0002880 268.6125  91.4704 14.98322291 39457,6950.217,96.107,574.083,570.08,0.0
56776.0,STARLINK-6274,PAYLOAD,2024-02-10 11:03:36,14.9832818,0.0002769,69.9992,76.4049,269.4896,90.5946,-2.356e-05,-3.74e-06,0.0,0 STARLINK-6274,1 56776U 23078K   24041.46083834 -.00000374  00000-0 -23560-4 0  9994,2 56776  69.9992  76.4049 0002769 269.4896  90.5946 14.98328180 39857,6950.199,96.107,573.988,570.139,0.0
56776.0,STARLINK-6274,PAYLOAD,2024-02-10 12:39:44,14.98328708,0.0002767,69.9993,76.2367,269.433,90.6512,-1.7515e-05,-3.02e-06,0.0,0 STARLINK-6274,1 56776U 23078K   24041.52759791 -.00000302  00000-0 -17515-4 0  9997,2 56776  69.9993  76.2367 0002767 269.4330  90.6512 14.98328708 39609,6950.197,96.107,573.985,570.139,0.0
56776.0,STARLINK-6274,PAYLOAD,2024-02-11 11:05:36,14.98352016,0.0002848,69.9994,73.8798,267.4778,92.6055,-0.00036014,-4.39e-05,0.0,0 STARLINK-6274,1 56776U 23078K   24042.46223111 -.00004390  00000-0 -36014-3 0  9998,2 56776  69.9994  73.8798 0002848 267.4778  92.6055 14.98352016 40004,6950.125,96.106,573.969,570.01,0.0
56776.0,STARLINK-6274,PAYLOAD,2024-02-12 03:06:57,14.98330937,0.0002799,69.9992,72.1962,267.2227,92.8611,4.8505e-05,4.86e-06,0.0,0 STARLINK-6274,1 56776U 23078K   24043.12983360  .00000486  00000-0  48505-4 0  9990,2 56776  69.9992  72.1962 0002799 267.2227  92.8611 14.98330937 40108,6950.19,96.107,574.0,570.11,0.0
56776.0,STARLINK-6274,PAYLOAD,2024-02-12 11:07:37,14.98332895,0.0002766,69.9993,71.3547,266.004,94.0803,6.7442e-05,7.12e-06,0.0,0 STARLINK-6274,1 56776U 23078K   24043.46363134  .00000712  00000-0  67442-4 0  9991,2 56776  69.9993  71.3547 0002766 266.0040  94.0803 14.98332895 39899,6950.184,96.107,573.971,570.127,0.0
56776.0,STARLINK-6274,PAYLOAD,2024-02-13 03:08:59,14.98324906,0.0002508,70.0003,69.6726,251.7735,108.3151,-3.2415e-05,-4.8e-06,0.0,0 STARLINK-6274,1 56776U 23078K   24044.13123882 -.00000480  00000-0 -32415-4 0  9996,2 56776  70.0003  69.6726 0002508 251.7735 108.3151 14.98324906 40250,6950.209,96.107,573.817,570.331,0.0
56776.0,STARLINK-6274,PAYLOAD,2024-02-13 11:09:39,14.98324685,0.0002678,69.9997,68.8299,265.5538,94.5315,-5.1102e-05,-7.03e-06,0.0,0 STARLINK-6274,1 56776U 23078K   24044.46504094 -.00000703  00000-0 -51102-4 0  9992,2 56776  69.9997  68.8299 0002678 265.5538  94.5315 14.98324685 40046,6950.209,96.107,573.936,570.213,0.0
56776.0,STARLINK-6274,PAYLOAD,2024-02-13 19:10:19,14.98329737,0.0002788,69.9992,67.9861,267.9936,92.0903,-4.4207e-05,-6.2e-06,0.0,0 STARLINK-6274,1 56776U 23078K   24044.79883775 -.00000620  00000-0 -44207-4 0  9990,2 56776  69.9992  67.9861 0002788 267.9936  92.0903 14.98329737 40090,6950.194,96.107,573.996,570.121,0.0
56776.0,STARLINK-6274,PAYLOAD,2024-02-14 04:47:07,14.98335061,0.0002879,69.9989,66.9764,266.7969,93.286,-4.9462e-06,-1.52e-06,0.0,0 STARLINK-6274,1 56776U 23078K   24045.19939249 -.00000152  00000-0 -49462-5 0  9992,2 56776  69.9989  66.9764 0002879 266.7969  93.2860 14.98335061 40419,6950.177,96.107,574.043,570.041,0.0
56776.0,STARLINK-6274,PAYLOAD,2024-02-14 11:11:39,14.9833831,0.0002889,69.999,66.3036,268.1419,91.9409,3.1916e-05,2.88e-06,0.0,0 STARLINK-6274,1 56776U 23078K   24045.46642848  .00000288  00000-0  31916-4 0  9990,2 56776  69.9990  66.3036 0002889 268.1419  91.9409 14.98338310 40193,6950.167,96.106,574.04,570.024,0.0
56776.0,STARLINK-6274,PAYLOAD,2024-02-14 19:12:19,14.98331907,0.0002907,69.9991,65.4616,268.4619,91.6207,6.0029e-05,6.23e-06,0.0,0 STARLINK-6274,1 56776U 23078K   24045.80023052  .00000623  00000-0  60029-4 0  9998,2 56776  69.9991  65.4616 0002907 268.4619  91.6207 14.98331907 40248,6950.187,96.107,574.072,570.032,0.0
56776.0,STARLINK-6274,PAYLOAD,2024-02-15 03:12:58,14.98355621,0.0002882,69.9989,64.6202,273.54,86.543,0.00032464,3.785e-05,0.0,0 STARLINK-6274,1 56776U 23078K   24046.13400579  .00003785  00000-0  32464-3 0  9991,2 56776  69.9989  64.6202 0002882 273.5400  86.5430 14.98355621 40558,6950.114,96.105,573.982,569.976,0.0
56776.0,STARLINK-6274,PAYLOAD,2024-02-15 11:13:40,14.98322621,0.000294,69.999,63.7784,271.5611,88.5211,-4.924e-05,-6.8e-06,0.0,0 STARLINK-6274,1 56776U 23078K   24046.46783508 -.00000680  00000-0 -49240-4 0  9997,2 56776  69.9990  63.7784 0002940 271.5611  88.5211 14.98322621 40601,6950.216,96.107,574.124,570.037,0.0
56776.0,STARLINK-6274,PAYLOAD,2024-02-16 11:15:41,14.9833048,0.0002795,69.9993,61.2528,269.6326,90.4513,-9.0742e-05,-1.176e-05,0.0,0 STARLINK-6274,1 56776U 23078K   24047.46923279 -.00001176  00000-0 -90742-4 0  9993,2 56776  69.9993  61.2528 0002795 269.6326  90.4513 14.98330480 40757,6950.191,96.107,573.999,570.114,0.0
56776.0,STARLINK-6274,PAYLOAD,2024-02-17 09:41:34,14.98334043,0.0002552,69.9995,58.8972,269.0065,91.0802,-0.00023143,-2.853e-05,0.0,0 STARLINK-6274,1 56776U 23078K   24048.40387374 -.00002853  00000-0 -23143-3 0  9991,2 56776  69.9995  58.8972 0002552 269.0065  91.0802 14.98334043 40633,6950.18,96.107,573.819,570.272,0.0
56776.0,STARLINK-6274,PAYLOAD,2024-02-17 17:42:15,14.983175,0.0002696,69.9999,58.0563,266.6275,93.4575,0.0001317,1.478e-05,0.0,0 STARLINK-6274,1 56776U 23078K   24048.73767684  .00001478  00000-0  13170-3 0  9992,2 56776  69.9999  58.0563 0002696 266.6275  93.4575 14.98317500 40946,6950.232,96.108,573.97,570.223,0.0
56776.0,STARLINK-6274,PAYLOAD,2024-02-18 03:19:03,14.98341517,0.0002983,69.9992,57.0457,269.7917,90.29,-0.00015098,-1.895e-05,0.0,0 STARLINK-6274,1 56776U 23078K   24049.13823048 -.00001895  00000-0 -15098-3 0  9990,2 56776  69.9992  57.0457 0002983 269.7917  90.2900 14.98341517 41006,6950.157,96.106,574.096,569.949,0.0
56776.0,STARLINK-6274,PAYLOAD,2024-02-18 09:43:35,14.9832943,0.0002933,69.9993,56.372,270.2856,89.7967,0.00010472,1.157e-05,0.0,0 STARLINK-6274,1 56776U 23078K   24049.40527082  .00001157  00000-0  10472-3 0  9999,2 56776  69.9993  56.3720 0002933 270.2856  89.7967 14.98329430 40786,6950.195,96.107,574.098,570.021,0.0
56776.0,STARLINK-6274,PAYLOAD,2024-02-18 17:44:16,14.98326095,0.0002684,70.0,55.5309,267.7188,92.3664,5.0792e-05,5.13e-06,0.0,0 STARLINK-6274,1 56776U 23078K   24049.73907531  .00000513  00000-0  50792-4 0  9991,2 56776  70.0000  55.5309 0002684 267.7188  92.3664 14.98326095 41097,6950.205,96.107,573.935,570.205,0.0
56776.0,STARLINK-6274,PAYLOAD,2024-02-19 09:45:36,14.98327334,0.0002788,69.9995,53.8466,263.5552,96.529,6.5942e-05,6.94e-06,0.0,0 STARLINK-6274,1 56776U 23078K   24050.40667377  .00000694  00000-0  65942-4 0  9991,2 56776  69.9995  53.8466 0002788 263.5552  96.5290 14.98327334 40936,6950.201,96.107,574.004,570.128,0.0
56776.0,STARLINK-6274,PAYLOAD,2024-02-19 17:46:17,14.98328311,0.0002987,69.9993,53.0042,268.6564,91.4253,-1.2746e-06,-1.08e-06,0.0,0 STARLINK-6274,1 56776U 23078K   24050.74047490 -.00000108  00000-0 -12746-5 0  9993,2 56776  69.9993  53.0042 0002987 268.6564  91.4253 14.98328311 41240,6950.198,96.107,574.139,569.987,0.0
